*******************************************************************************
 Revised: July 31, 2013                  Sun                                 10

 PHYSICAL PROPERTIES (updated 2018-Aug-15):
  GM, km^3/s^2          = 132712440041.93938  Mass, 10^24 kg        = ~1988500
  Vol. mean radius, km  = 695700              Volume, 10^12 km^3    = 1412000
  Solar radius (IAU)    = 696000 km           Mean density, g/cm^3  = 1.408
  Radius (photosphere)  = 696500 km           Angular diam at 1 AU  = 1919.3"
  Photosphere temp., K  = 6600 (bottom)       Photosphere temp., K  = 4400(top)
  Photospheric depth    = ~500 km             Chromospheric depth   = ~2500 km
  Flatness, f           = 0.00005             Adopted sid. rot. per.= 25.38 d
  Surface gravity       =  274.0 m/s^2        Escape speed, km/s    =  617.7
  Pole (RA,DEC), deg.   = (286.13, 63.87)     Obliquity to ecliptic = 7.25 deg.
  Solar constant (1 AU) = 1367.6 W/m^2        Luminosity, 10^24 J/s = 382.8
  Mass-energy conv rate = 4.260 x 10^9 kg/s   Effective temp, K     = 5772
  Sunspot cycle         = 11.4 yr             Cycle 24 sunspot min. = 2008 A.D.

  Motion relative to nearby stars = apex : R.A.= 271 deg.; DEC.= +30 deg.
                                    speed: 19.4 km/s (0.0112 au/day)
  Motion relative to 2.73K BB/CBR = apex : l= 264.7 +- 0.8; b= 48.2 +- 0.5 deg.
                                    speed: 369 +-11 km/s
*******************************************************************************


*******************************************************************************
Ephemeris / WWW_USER Thu Jul 20 18:59:18 2023 Pasadena, USA      / Horizons
*******************************************************************************
Target body name: Sun (10)                        {source: DE441}
Center body name: Solar System Barycenter (0)     {source: DE441}
Center-site name: BODY CENTER
*******************************************************************************
Start time      : A.D. 2000-Jan-01 00:00:00.0000 TDB
Stop  time      : A.D. 2050-Jan-01 00:00:00.0000 TDB
Step-size       : 1 calendar years
*******************************************************************************
Center geodetic : 0.0, 0.0, 0.0                   {E-lon(deg),Lat(deg),Alt(km)}
Center cylindric: 0.0, 0.0, 0.0                   {E-lon(deg),Dxy(km),Dz(km)}
Center radii    : (undefined)
Output units    : AU-D
Calendar mode   : Mixed Julian/Gregorian
Output type     : GEOMETRIC cartesian states
Output format   : 3 (position, velocity, LT, range, range-rate)
Reference frame : Ecliptic of J2000.0
*******************************************************************************
JDTDB
   X     Y     Z
   VX    VY    VZ
   LT    RG    RR
*******************************************************************************
$$SOE
2460310.500000000 = A.D. 2024-Jan-01 00:00:00.0000 TDB 
 X =-7.967955691533730E-03 Y =-2.906227441573178E-03 Z = 2.103054301547123E-04
 VX= 4.875094764261564E-06 VY=-7.057133213976680E-06 VZ=-4.573453713094512E-08
 LT= 4.899965008692825E-05 RG= 8.484026415467499E-03 RR=-2.162242571101315E-06
2460676.500000000 = A.D. 2025-Jan-01 00:00:00.0000 TDB 
 X =-5.730606324378153E-03 Y =-4.910557082772070E-03 Z = 1.795094577858112E-04
 VX= 7.160788611314778E-06 VY=-3.666546272590425E-06 VZ=-1.176972196034231E-07
 LT= 4.359871551699735E-05 RG= 7.548883583259208E-03 RR=-3.053697046083780E-06
2461041.500000000 = A.D. 2026-Jan-01 00:00:00.0000 TDB 
 X =-3.067316167378726E-03 Y =-5.533329071575707E-03 Z = 1.316841939795200E-04
 VX= 7.176071432730415E-06 VY= 1.778134123198417E-07 VZ=-1.358857619127603E-07
 LT= 3.654744158241176E-05 RG= 6.327993347969942E-03 RR=-3.636709583773121E-06
2461406.500000000 = A.D. 2027-Jan-01 00:00:00.0000 TDB 
 X =-7.061367687002532E-04 Y =-4.872630031372872E-03 Z = 8.295173903324299E-05
 VX= 5.583110313303771E-06 VY= 3.330074283393645E-06 VZ=-1.219129647868549E-07
 LT= 2.843997620961981E-05 RG= 4.924229234078757E-03 RR=-4.097853972493756E-06
2461771.500000000 = A.D. 2028-Jan-01 00:00:00.0000 TDB 
 X = 8.113323934466055E-04 Y =-3.306687874887355E-03 Z = 4.710641103474789E-05
 VX= 2.767068204716230E-06 VY= 4.989411221491047E-06 VZ=-7.419037149421422E-08
 LT= 1.966618181629499E-05 RG= 3.405093826687221E-03 RR=-4.186935540502785E-06
2462137.500000000 = A.D. 2029-Jan-01 00:00:00.0000 TDB 
 X = 1.233209621566276E-03 Y =-1.381628523388709E-03 Z = 3.129575842708305E-05
 VX=-4.088494805738079E-07 VY= 5.248501986911198E-06 VZ=-9.225163628772246E-09
 LT= 1.069747419276783E-05 RG= 1.852210239648952E-03 RR=-4.187411183601478E-06
2462502.500000000 = A.D. 2030-Jan-01 00:00:00.0000 TDB 
 X = 5.488733868990874E-04 Y = 3.130928645044269E-04 Z = 3.840385817745707E-05
 VX=-3.092035370515793E-06 VY= 3.865018380739585E-06 VZ= 4.525645794369841E-08
 LT= 3.656245207294010E-06 RG= 6.330592333838730E-04 RR=-7.665763357597348E-07
2462867.500000000 = A.D. 2031-Jan-01 00:00:00.0000 TDB 
 X =-9.794604207500825E-04 Y = 1.278943356033866E-03 Z = 6.474287523709908E-05
 VX=-4.929399642971948E-06 VY= 1.234220814060048E-06 VZ= 9.264095513418577E-08
 LT= 9.311365209583727E-06 RG= 1.612212908909076E-03 RR= 3.977544259033826E-06
2463232.500000000 = A.D. 2032-Jan-01 00:00:00.0000 TDB 
 X =-2.874284785780608E-03 Y = 1.146942966750277E-03 Z = 1.010522947976579E-04
 VX=-5.097635485330519E-06 VY=-1.968170398524408E-06 VZ= 1.037947457390281E-07
 LT= 1.788285779084182E-05 RG= 3.096320843360984E-03 RR= 4.006421248893106E-06
2463598.500000000 = A.D. 2033-Jan-01 00:00:00.0000 TDB 
 X =-4.506449505998939E-03 Y =-1.837577449134300E-04 Z = 1.344516163468074E-04
 VX=-3.364055833252261E-06 VY=-5.131146228756029E-06 VZ= 6.991172972582093E-08
 LT= 2.606028258718355E-05 RG= 4.512198055944799E-03 RR= 3.570817404959697E-06
2463963.500000000 = A.D. 2034-Jan-01 00:00:00.0000 TDB 
 X =-5.199082802837826E-03 Y =-2.430191387504737E-03 Z = 1.489576539362552E-04
 VX=-1.270652870426551E-07 VY=-6.909284084863785E-06 VZ= 4.226460800630340E-09
 LT= 3.315694871094785E-05 RG= 5.740947705155692E-03 RR= 3.039939760045708E-06
2464328.500000000 = A.D. 2035-Jan-01 00:00:00.0000 TDB 
 X =-4.516668222181442E-03 Y =-4.958069599663040E-03 Z = 1.327330691138520E-04
 VX= 3.929862165495955E-06 VY=-6.489782887497326E-06 VZ=-9.225124662903135E-08
 LT= 3.874351150058318E-05 RG= 6.708231067278680E-03 RR= 2.148802977536390E-06
2464693.500000000 = A.D. 2036-Jan-01 00:00:00.0000 TDB 
 X =-2.484092601946241E-03 Y =-6.931930060311285E-03 Z = 8.388363052922216E-05
 VX= 7.134244195386283E-06 VY=-4.006651854411810E-06 VZ=-1.753339023562275E-07
 LT= 4.253127418848672E-05 RG= 7.364061846532931E-03 RR= 1.362970568342417E-06
2465059.500000000 = A.D. 2037-Jan-01 00:00:00.0000 TDB 
 X = 4.184673483445003E-04 Y =-7.683458590493558E-03 Z = 1.066155103815091E-05
 VX= 8.421049560047074E-06 VY= 1.455528572152428E-09 VZ=-2.151275730854175E-07
 LT= 4.444176523867355E-05 RG= 7.694853117644954E-03 RR= 4.562084732337729E-07
2465424.500000000 = A.D. 2038-Jan-01 00:00:00.0000 TDB 
 X = 3.396631376534494E-03 Y =-6.963260792104946E-03 Z =-6.933595541758938E-05
 VX= 7.681307841569142E-06 VY= 3.940190556751745E-06 VZ=-2.146875781800726E-07
 LT= 4.474775034476550E-05 RG= 7.747832796443034E-03 RR=-1.718051558907010E-07
2465789.500000000 = A.D. 2039-Jan-01 00:00:00.0000 TDB 
 X = 5.733369600543154E-03 Y =-4.943517146108552E-03 Z =-1.386618914091885E-04
 VX= 5.020487641156491E-06 VY= 6.873413866934433E-06 VZ=-1.604655521109965E-07
 LT= 4.372991052137575E-05 RG= 7.571599294101001E-03 RR=-6.831156039714611E-07
2466154.500000000 = A.D. 2040-Jan-01 00:00:00.0000 TDB 
 X = 6.931030373470971E-03 Y =-2.115277069610562E-03 Z =-1.841817601511480E-04
 VX= 1.488572026453439E-06 VY= 8.379994257856880E-06 VZ=-8.124853527288789E-08
 LT= 4.186653361512601E-05 RG= 7.248965584134729E-03 RR=-1.019967219407223E-06
2466520.500000000 = A.D. 2041-Jan-01 00:00:00.0000 TDB 
 X = 6.760383593958469E-03 Y = 9.245536007899109E-04 Z =-1.974623395178717E-04
 VX=-2.243978835630558E-06 VY= 7.979876047174117E-06 VZ= 7.032548685654990E-09
 LT= 3.942466159430625E-05 RG= 6.826168550052386E-03 RR=-1.141741985813007E-06
2466885.500000000 = A.D. 2042-Jan-01 00:00:00.0000 TDB 
 X = 5.295674419586985E-03 Y = 3.537320877441719E-03 Z =-1.776247895341620E-04
 VX=-5.545158516953556E-06 VY= 6.048252724958516E-06 VZ= 9.899179641137545E-08
 LT= 3.679524534286321E-05 RG= 6.370899239048601E-03 RR=-1.253877446811173E-06
2467250.500000000 = A.D. 2043-Jan-01 00:00:00.0000 TDB 
 X = 2.854778694852462E-03 Y = 5.183593303098418E-03 Z =-1.294806010279307E-04
 VX=-7.492668680169329E-06 VY= 2.856416234134819E-06 VZ= 1.609865248983552E-07
 LT= 3.418607611691639E-05 RG= 5.919135591837110E-03 RR=-1.115746612515824E-06
2467615.500000000 = A.D. 2044-Jan-01 00:00:00.0000 TDB 
 X =-2.142377756606923E-05 Y = 5.505019186140445E-03 Z =-6.336304559321087E-05
 VX=-7.779188009670154E-06 VY=-1.121566201189693E-06 VZ= 1.906337283929602E-07
 LT= 3.179668598023262E-05 RG= 5.505425514305543E-03 RR=-1.093405583363922E-06
2467981.500000000 = A.D. 2045-Jan-01 00:00:00.0000 TDB 
 X =-2.631209437795281E-03 Y = 4.420523247468130E-03 Z = 4.917125304183766E-06
 VX=-6.088505913785249E-06 VY=-4.671112140924888E-06 VZ= 1.770807017399496E-07
 LT= 2.971127433605745E-05 RG= 5.144347681200250E-03 RR=-8.995805001628193E-07
2468346.500000000 = A.D. 2046-Jan-01 00:00:00.0000 TDB 
 X =-4.268724619103471E-03 Y = 2.238812856572349E-03 Z = 5.819975567542086E-05
 VX=-2.564934622130983E-06 VY=-6.881143405082123E-06 VZ= 1.097099617047947E-07
 LT= 2.784116158739796E-05 RG= 4.820547696274191E-03 RR=-9.231746977231851E-07
2468711.500000000 = A.D. 2047-Jan-01 00:00:00.0000 TDB 
 X =-4.500875605434261E-03 Y =-3.449063953205629E-04 Z = 8.379154421784929E-05
 VX= 1.412197459238836E-06 VY=-6.907134418299232E-06 VZ= 2.701315259517181E-08
 LT= 2.607559390973196E-05 RG= 4.514849129263200E-03 RR=-8.796632340651734E-07
